{
   "type": "FeatureCollection",
   "features": [
  {
    "type": "Feature",
    "geometry": {
       "type": "Point",
       "coordinates":  [ 5.3900447,43.3104849 ]
    },
    "properties": {
    "id":1,
    "nom":"Ramina",
    "adresse":"41 Rue Jobin 10003 Marseille",
    "horaires":"Jeudi 16h30-18h30",
    "notes":""
    }
  },
  {
    "type": "Feature",
    "geometry": {
       "type": "Point",
       "coordinates":  [ 5.3662183,43.3049207 ]
    },
    "properties": {
    "id":2,
    "nom":"Vendredi 13",
    "adresse":"Place de la Joliette 13002 Marseille",
    "horaires":"Mardi et jeudi 19h-20h30",
    "notes":""
    }
  },
  {
    "type": "Feature",
    "geometry": {
       "type": "Point",
       "coordinates":  [ 5.385329,43.300025 ]
    },
    "properties": {
    "id":3,
    "nom":"Camion Emmaüs",
    "adresse":"Cours Joseph Thierry 13001 Marseille",
    "horaires":"Mardi au vendredi 7h30-9h / Mardi au vendredi 10h-11h",
    "notes":"10h-11hPetit-déjeuner 7h30-9h, soupe 10h-11h"
    }
  },
  {
    "type": "Feature",
    "geometry": {
       "type": "Point",
       "coordinates":  [ 5.3772566,43.3127526 ]
    },
    "properties": {
    "id":4,
    "nom":"Missionaire de la charité",
    "adresse":"11 Avenue Alphée Cartier 13003 Marseille",
    "horaires":"Lundi, mardi, mercredi, vendredi, samedi et dimanche 9h30-11h",
    "notes":""
    }
  },
  {
    "type": "Feature",
    "geometry": {
       "type": "Point",
       "coordinates":  [ 5.3786158,43.3044765 ]
    },
    "properties": {
    "id":5,
    "nom":"Inter-Asso",
    "adresse":"Place Victor Hugo 13003 Marseille",
    "horaires":"Lundi et vendredi 19h-20h",
    "notes":""
    }
  },
  {
    "type": "Feature",
    "geometry": {
       "type": "Point",
       "coordinates":  [ 5.380522,43.301813 ]
    },
    "properties": {
    "id":6,
    "nom":"Inter-Asso",
    "adresse":"Escalier de la gare 13003 Marseille",
    "horaires":"Jeudi et vendredi 19h-20h",
    "notes":""
    }
  }
]
}