{
   "type": "FeatureCollection",
   "features": [
  {
    "type": "Feature",
    "geometry": {
       "type": "Point",
       "coordinates":  [ 5.378237,43.287851 ]
    },
    "properties": {
    "id":1,
    "nom":"Accueil - St Joseph",
    "numéro de voie":"29-31 Rue Stanislas Torrents 13006 Marseille",
    "horaires":"Mardi et jeudi 9h-13h",
    "notes":""
    }
  },
  {
    "type": "Feature",
    "geometry": {
       "type": "Point",
       "coordinates":  [ 5.3856628,43.2986827 ]
    },
    "properties": {
    "id":2,
    "nom":"El Manba",
    "numéro de voie":"8 Rue Barbaroux 13001 Marseille",
    "horaires":"Vendredi 18h-20h",
    "notes":""
    }
  },
  {
    "type": "Feature",
    "geometry": {
       "type": "Point",
       "coordinates":  [ 5.3900447,43.3104849 ]
    },
    "properties": {
    "id":3,
    "nom":"Didac'Ressources",
    "numéro de voie":"41 Rue Jobin 13003 Marseille",
    "horaires":"Lundi, mercredi et vendredi 9h30-11h30",
    "notes":""
    }
  },
  {
    "type": "Feature",
    "geometry": {
       "type": "Point",
       "coordinates":  [ 5.3817239,43.2981284 ]
    },
    "properties": {
    "id":4,
    "nom":"Tous Réfugiés",
    "numéro de voie":"93 La Canebière 13001 Marseille",
    "horaires":"Lundi et mercredi 18h-20h",
    "notes":""
    }
  },
  {
    "type": "Feature",
    "geometry": {
       "type": "Point",
       "coordinates":  [ 5.3762894,43.3016442 ]
    },
    "properties": {
    "id":5,
    "nom":"Centre Social Bernard Dubois",
    "numéro de voie":"16 Rue Bernard du Bois 13001 Marseille",
    "horaires":"Lundi 9h-11h et 14h-16h / Jeudi 9h-11h30",
    "notes":""
    }
  }
]
}